ONEWEB-0456             
1 51646U 22012AA  25011.36346307 -.00000150  00000+0 -46548-3 0  9997
2 51646  87.8906 140.1930 0001517 112.6341 247.4946 13.10369781141003
ONEWEB-0457             
1 51647U 22012AB  25011.34022712  .00000711  00000+0  20007-2 0  9999
2 51647  87.8919 140.2382 0001779  91.7799 268.3533 13.10374871141004
ONEWEB-0458             
1 51648U 22012AC  25011.89631014 -.00000032  00000+0 -12845-3 0  9991
2 51648  87.8899 140.1330 0001439 103.8473 256.2814 13.10369438142339
ONEWEB-0461             
1 51649U 22012AD  25011.31978919  .00000062  00000+0  12528-3 0  9996
2 51649  87.9097 109.8265 0001778 103.2764 256.8565 13.17650778145163
ONEWEB-0463             
1 51650U 22012AE  25011.22528675  .00000036  00000+0  58790-4 0  9991
2 51650  87.9104 109.9012 0001679 101.9710 258.1609 13.17651434144939
ONEWEB-0464             
1 51651U 22012AF  25011.35848751  .00000150  00000+0  39227-3 0  9996
2 51651  87.8913 140.2414 0001446 119.2489 240.8783 13.10369583140984
ONEWEB-0468             
1 51652U 22012AG  25011.82323932  .00002336  00000+0  66536-2 0  9998
2 51652  87.8918 140.1431 0001618 103.1724 256.9584 13.10391152142316
ONEWEB-0473             
1 51653U 22012AH  25011.35018637  .00000541  00000+0  15143-2 0  9994
2 51653  87.8916 140.2387 0001392 105.5602 254.5679 13.10372626140969
ONEWEB-0474             
1 51654U 22012AJ  25011.41824195  .00000661  00000+0  18579-2 0  9995
2 51654  87.8909 140.2029 0001313 110.6246 249.5022 13.10374984140964
ONEWEB-0475             
1 51655U 22012AK  25011.31303793  .00000051  00000+0  97694-4 0  9991
2 51655  87.9103 109.8634 0000854 105.5962 254.5264 13.17651273144966
ONEWEB-0490             
1 54113U 22138A   25011.59085441  .00000143  00000+0  32453-3 0  9992
2 54113  87.9146  48.6596 0001753  99.2424 260.8907 13.19724225108035
ONEWEB-0492             
1 54114U 22138B   25011.54031620  .00000067  00000+0  13598-3 0  9992
2 54114  87.9153  48.6841 0001887 104.1363 255.9980 13.19726296108039
ONEWEB-0495             
1 54115U 22138C   25011.59401359 -.00000218  00000+0 -57585-3 0  9992
2 54115  87.9150  48.6848 0001399 117.0639 243.0636 13.19723703108026
ONEWEB-0497             
1 54116U 22138D   25011.60666546  .00000064  00000+0  12825-3 0  9991
2 54116  87.9146  48.6614 0001733  98.6013 261.5316 13.19722227108014
ONEWEB-0499             
1 54117U 22138E   25011.58928458  .00000094  00000+0  20290-3 0  9990
2 54117  87.9149  48.6754 0001468  85.8226 274.3075 13.19726573108025
ONEWEB-0500             
1 54118U 22138F   25011.59244225  .00000087  00000+0  18539-3 0  9990
2 54118  87.9148  48.6645 0001856  97.3136 262.8207 13.19726617108032
ONEWEB-0501             
1 54119U 22138G   25011.54663842  .00000045  00000+0  81285-4 0  9999
2 54119  87.9147  48.6694 0001375 104.8381 255.2904 13.19726594108009
ONEWEB-0502             
1 54120U 22138H   25011.83568233 -.00000014  00000+0 -67069-4 0  9993
2 54120  87.9144  48.5978 0001518  96.8971 263.2335 13.19725904108939
ONEWEB-0503             
1 54121U 22138J   25011.59717157  .00000079  00000+0  16615-3 0  9997
2 54121  87.9146  48.6515 0001780  86.5073 273.6263 13.19726501108029
ONEWEB-0504             
1 54122U 22138K   25011.66036141  .00000068  00000+0  13670-3 0  9999
2 54122  87.9147  48.6492 0001481  91.9039 268.2264 13.19726479108918
ONEWEB-0505             
1 54123U 22138L   25011.58138173  .00000099  00000+0  21448-3 0  9995
2 54123  87.9147  48.6571 0001213 104.7001 255.4266 13.19726562108016
ONEWEB-0506             
1 54124U 22138M   25011.55610662  .00000005  00000+0 -19188-4 0  9998
2 54124  87.9147  48.6593 0001585  99.7972 260.3340 13.19726637108003
ONEWEB-0507             
1 54125U 22138N   25011.57664030  .00000035  00000+0  55582-4 0  9999
2 54125  87.9156  48.6939 0001654 102.1283 258.0035 13.19726368108050
ONEWEB-0508             
1 54126U 22138P   25011.57348029  .00000046  00000+0  82236-4 0  9995
2 54126  87.9151  48.6822 0001582 109.2550 250.8754 13.19726631108031
ONEWEB-0509             
1 54127U 22138Q   25011.54820890  .00000029  00000+0  40933-4 0  9993
2 54127  87.9145  48.6601 0001668  97.3702 262.7621 13.19726775108002
ONEWEB-0510             
1 54128U 22138R   25011.54598946  .00000018  00000+0  13502-4 0  9998
2 54128  87.9247  18.2172 0002084  92.9116 267.2256 13.20772814110425
ONEWEB-0511             
1 54129U 22138S   25011.54505265  .00000026  00000+0  33626-4 0  9999
2 54129  87.9146  48.6653 0001626  85.0470 275.0848 13.19727003108038
ONEWEB-0512             
1 54130U 22138T   25011.61297060  .00000035  00000+0  55753-4 0  9995
2 54130  87.9154  48.6840 0001363 100.0523 260.0763 13.19726651108883
ONEWEB-0513             
1 54131U 22138U   25011.58375081  .00000074  00000+0  15174-3 0  9997
2 54131  87.9153  48.6791 0001284  89.0125 271.1154 13.19726355107892
ONEWEB-0514             
1 54132U 22138V   25011.55295424  .00000006  00000+0 -18362-4 0  9996
2 54132  87.9148  48.6731 0001811  93.4047 266.7293 13.19726618108021
ONEWEB-0515             
1 54133U 22138W   25011.53336469  .00000042  00000+0  72457-4 0  9994
2 54133  87.9244  18.1973 0002724  99.0239 261.1202 13.20772966110445
ONEWEB-0516             
1 54134U 22138X   25011.60348954  .00000083  00000+0  17460-3 0  9992
2 54134  87.9154  48.6877 0001756  99.6024 260.5307 13.19727918108035
ONEWEB-0517             
1 54135U 22138Y   25011.58296019  .00000122  00000+0  27342-3 0  9998
2 54135  87.9147  48.6624 0001722  82.7239 277.4090 13.19726321108035
ONEWEB-0518             
1 54136U 22138Z   25011.60190928  .00000107  00000+0  23581-3 0  9998
2 54136  87.9151  48.6850 0001722  92.8914 267.2416 13.19727092108039
ONEWEB-0519             
1 54137U 22138AA  25011.55136933  .00000033  00000+0  48887-4 0  9994
2 54137  87.9146  48.6629 0001685  86.3094 273.8231 13.19726663108034
ONEWEB-0520             
1 54138U 22138AB  25011.58611949  .00000118  00000+0  26204-3 0  9995
2 54138  87.9147  48.6593 0001522 106.1371 253.9929 13.19726570108024
ONEWEB-0521             
1 54139U 22138AC  25011.54347314  .00000451  00000+0  10937-2 0  9999
2 54139  87.9146  48.6581 0002379  91.9316 268.2089 13.19722020107966
ONEWEB-0522             
1 54140U 22138AD  25011.59877021  .00000060  00000+0  11748-3 0  9997
2 54140  87.9146  48.6480 0001787  99.2464 260.8871 13.19726976108011
ONEWEB-0523             
1 54141U 22138AE  25011.52073527  .00000057  00000+0  10793-3 0  9995
2 54141  87.9246  18.2292 0002701  84.8529 275.2912 13.20771413111317
ONEWEB-0524             
1 54142U 22138AF  25011.50969326  .00000087  00000+0  18315-3 0  9996
2 54142  87.9245  18.2338 0002620 106.7681 253.3739 13.20772563110445
ONEWEB-0525             
1 54143U 22138AG  25011.54188642 -.00000005  00000+0 -46046-4 0  9990
2 54143  87.9149  48.6741 0001456 101.4464 258.6833 13.19726579108894
ONEWEB-0526             
1 54144U 22138AH  25011.57506483  .00000041  00000+0  69440-4 0  9992
2 54144  87.9145  48.6587 0001741  99.9508 260.1821 13.19726714108005
ONEWEB-0529             
1 54145U 22138AJ  25011.57822164  .00000066  00000+0  13132-3 0  9993
2 54145  87.9157  48.6883 0001602 102.2324 257.8988 13.19726442108025
ONEWEB-0531             
1 54146U 22138AK  25011.49548468  .00000084  00000+0  17537-3 0  9990
2 54146  87.9247  18.2296 0002793  91.2161 268.9293 13.20772970110445
ONEWEB-0535             
1 54147U 22138AL  25011.83884647  .00000076  00000+0  15691-3 0  9991
2 54147  87.9144  48.6030 0002123  93.5709 266.5667 13.19726143108945
ONEWEB-0536             
1 54148U 22138AM  25011.55861892  .00000030  00000+0  41523-4 0  9992
2 54148  87.9245  18.2642 0002853  93.4428 266.7031 13.20772131110442
ONEWEB-0527             
1 54642U 22166A   25011.85022064  .00000005  00000+0 -19593-4 0  9990
2 54642  87.9312 347.8716 0001828  87.3573 272.7770 13.21826336103114
ONEWEB-0528             
1 54643U 22166B   25011.47804340  .00000078  00000+0  15852-3 0  9996
2 54643  87.9314 347.9395 0001691  86.8064 273.3264 13.21828807102623
ONEWEB-0539             
1 54644U 22166C   25011.43863242  .00000069  00000+0  13521-3 0  9990
2 54644  87.9316 347.9522 0001704  78.6674 281.4652 13.21827229102616
ONEWEB-0540             
1 54645U 22166D   25011.43310228  .00000070  00000+0  13828-3 0  9994
2 54645  87.9310 347.9596 0001714  77.6700 282.4626 13.21829645102607
ONEWEB-0542             
1 54646U 22166E   25011.44808601  .00000017  00000+0  95787-5 0  9990
2 54646  87.9314 347.9490 0001828  70.2237 289.9094 13.21827538102616
ONEWEB-0545             
1 54647U 22166F   25011.49066184  .00000108  00000+0  23050-3 0  9991
2 54647  87.9304 347.9408 0001552  65.1201 295.0094 13.21826081103052
ONEWEB-0580             
1 54648U 22166G   25011.46386511  .00000002  00000+0 -27251-4 0  9990
2 54648  87.9314 347.9305 0001913  70.9200 289.2141 13.21826367102621
ONEWEB-0582             
1 54649U 22166H   25011.43073458  .00000138  00000+0  30258-3 0  9990
2 54649  87.9310 347.9678 0001969  65.6537 294.4802 13.21827831102591
ONEWEB-0583             
1 54650U 22166J   25011.44179676  .00000009  00000+0 -89833-5 0  9995
2 54650  87.9309 347.9625 0001716  80.5994 279.5334 13.21828028102601
ONEWEB-0584             
1 54651U 22166K   25011.46228255  .00000034  00000+0  51992-4 0  9997
2 54651  87.9314 347.9347 0002004  71.0602 289.0749 13.21827892102593
ONEWEB-0585             
1 54652U 22166L   25011.48751842  .00000156  00000+0  34587-3 0  9998
2 54652  87.9301 347.9336 0001851  86.1847 273.9499 13.21826876102602
ONEWEB-0586             
1 54653U 22166M   25011.42446564  .00000071  00000+0  14075-3 0  9991
2 54653  87.9309 347.9574 0001798  77.5547 282.5788 13.21828770102596
ONEWEB-0587             
1 54654U 22166N   25011.43388769  .00000087  00000+0  17805-3 0  9996
2 54654  87.9306 347.9074 0001861  90.8767 269.2580 13.21825053102753
